[{"OBJECT_NAME":"YAOGAN-43 01F","OBJECT_ID":"2024-148F","EPOCH":"2026-03-10T00:23:08.877408","MEAN_MOTION":15.29824616,"ECCENTRICITY":0.00057048,"INCLINATION":34.9925,"RA_OF_ASC_NODE":59.8891,"ARG_OF_PERICENTER":18.4862,"MEAN_ANOMALY":341.6062,"EPHEMERIS_TYPE":0,"CLASSIFICATION_TYPE":"U","NORAD_CAT_ID":60463,"ELEMENT_SET_NO":999,"REV_AT_EPOCH":8707,"BSTAR":0.00058388219,"MEAN_MOTION_DOT":0.00017308,"MEAN_MOTION_DDOT":0},{"OBJECT_NAME":"STARLINK-35025","OBJECT_ID":"2025-192AC","EPOCH":"2026-03-09T17:12:35.094240","MEAN_MOTION":15.3017233,"ECCENTRICITY":8.318e-5,"INCLINATION":53.1606,"RA_OF_ASC_NODE":232.5559,"ARG_OF_PERICENTER":84.1219,"MEAN_ANOMALY":275.9876,"EPHEMERIS_TYPE":0,"CLASSIFICATION_TYPE":"U","NORAD_CAT_ID":65430,"ELEMENT_SET_NO":999,"REV_AT_EPOCH":2938,"BSTAR":0.00075005278,"MEAN_MOTION_DOT":0.00021902,"MEAN_MOTION_DDOT":0}]
